{
  "type": "FeatureCollection",
  "features": [
    {
      "type": "Feature",
      "properties": {
        "name": "fort_ross",
        "extent_m": 6500.0,
        "area_km2": 42.25,
        "centre": [
          71.99196,
          -94.822428
        ]
      },
      "geometry": {
        "type": "Polygon",
        "coordinates": [
          [
            [
              -94.8112494061816,
              71.9508779901943
            ],
            [
              -94.6895948450554,
              71.995378500469
            ],
            [
              -94.8336585365385,
              72.0330458219756
            ],
            [
              -94.9552092127788,
              71.9884463021088
            ],
            [
              -94.8112494061816,
              71.9508779901943
            ]
          ]
        ]
      }
    }
  ]
}
