{
  "type": "FeatureCollection",
  "features": [
    {
      "type": "Feature",
      "properties": {
        "name": "pond_inlet",
        "extent_m": 5000.0,
        "area_km2": 25.0,
        "centre": [
          72.6989,
          -77.9647
        ]
      },
      "geometry": {
        "type": "Polygon",
        "coordinates": [
          [
            [
              -77.9869032574644,
              72.6678537624141
            ],
            [
              -77.8604083873332,
              72.6922527357196
            ],
            [
              -77.9424157334009,
              72.7299461292112
            ],
            [
              -78.0690726212891,
              72.7054908429344
            ],
            [
              -77.9869032574644,
              72.6678537624141
            ]
          ]
        ]
      }
    }
  ]
}
