{
  "type": "FeatureCollection",
  "features": [
    {
      "type": "Feature",
      "properties": {
        "name": "resolute",
        "extent_m": 2500.0,
        "area_km2": 6.25,
        "centre": [
          74.697222,
          -94.829722
        ]
      },
      "geometry": {
        "type": "Polygon",
        "coordinates": [
          [
            [
              -94.8246573574733,
              74.6813787885528
            ],
            [
              -94.7697136339359,
              74.6985523927078
            ],
            [
              -94.8347972615543,
              74.7130656587298
            ],
            [
              -94.88971974706,
              74.695875019278
            ],
            [
              -94.8246573574733,
              74.6813787885528
            ]
          ]
        ]
      }
    }
  ]
}
